{"id":"799","name":"Uranus ","centerId":"10","centerName":"Sun ","epoch":"2000-Jan-01 12:00:00.0000","ephemerisType":"ELEMENTS","table":{"eccentricity":0.04439245542666346,"periapsis":2749082756940.631,"inclination":0.7726589302345578,"longitudeOfAscendingNode":74.00247590855591,"argumentOfPeriapsis":96.59158989666786,"timeOfPeriapsis":2439319.7039593444,"meanMotion":1.352774984094379e-7,"meanAnomaly":142.8889650360195,"trueAnomaly":145.8267121145811,"semiMajorAxis":2876790553352.1636,"apoapsis":3004498349763.6973,"siderealOrbitPeriod":2661196460.8512}}
